NORAD_CAT_ID,OBJECT_NAME,OBJECT_TYPE,EPOCH,MEAN_MOTION,ECCENTRICITY,INCLINATION,RA_OF_ASC_NODE,ARG_OF_PERICENTER,MEAN_ANOMALY,BSTAR,MEAN_MOTION_DOT,MEAN_MOTION_DDOT,TLE_LINE0,TLE_LINE1,TLE_LINE2,SEMIMAJOR_AXIS,PERIOD,APOGEE,PERIGEE,DECAYED
54183.0,STARLINK-5239,PAYLOAD,2023-10-31 08:08:49,15.08844418,0.000171,53.2177,266.3983,89.2858,270.833,0.00037664,5.712e-05,0.0,0 STARLINK-5239,1 54183U 22141AC  23304.33945838  .00005712  00000-0  37664-3 0  9990,2 54183  53.2177 266.3983 0001710  89.2858 270.8330 15.08844418 56203,6917.867,95.437,540.915,538.549,0.0
54183.0,STARLINK-5239,PAYLOAD,2023-10-31 14:30:21,15.08840876,0.0001536,53.217,265.2077,84.0732,276.0435,0.00031906,4.794e-05,0.0,0 STARLINK-5239,1 54183U 22141AC  23304.60441917  .00004794  00000-0  31906-3 0  9991,2 54183  53.2170 265.2077 0001536  84.0732 276.0435 15.08840876 56015,6917.878,95.437,540.805,538.68,0.0
54183.0,STARLINK-5239,PAYLOAD,2023-11-01 04:48:50,15.08845943,0.0001723,53.2181,262.5329,86.7665,273.3524,0.00032487,4.887e-05,0.0,0 STARLINK-5239,1 54183U 22141AC  23305.20057986  .00004887  00000-0  32487-3 0  9995,2 54183  53.2181 262.5329 0001723  86.7665 273.3524 15.08845943 56333,6917.862,95.437,540.919,538.535,0.0
54183.0,STARLINK-5239,PAYLOAD,2023-11-01 06:24:13,15.08851288,0.000177,53.2179,262.2368,90.0082,270.1113,0.00044615,6.822e-05,0.0,0 STARLINK-5239,1 54183U 22141AC  23305.26681849  .00006822  00000-0  44615-3 0  9999,2 54183  53.2179 262.2368 0001770  90.0082 270.1113 15.08851288 56117,6917.846,95.437,540.935,538.486,0.0
54183.0,STARLINK-5239,PAYLOAD,2023-11-01 20:42:41,15.08843686,0.000135,53.218,259.5586,110.9531,249.1605,0.00023345,3.43e-05,0.0,0 STARLINK-5239,1 54183U 22141AC  23305.86297905  .00003430  00000-0  23345-3 0  9990,2 54183  53.2180 259.5586 0001350 110.9531 249.1605 15.08843686 56200,6917.869,95.437,540.668,538.8,0.0
54183.0,STARLINK-5239,PAYLOAD,2023-11-02 06:14:59,15.08863921,0.0001364,53.2164,257.774,107.6665,252.4476,0.001061,0.00016649,0.0,0 STARLINK-5239,1 54183U 22141AC  23306.26041460  .00016649  00000-0  10610-2 0  9994,2 54183  53.2164 257.7740 0001364 107.6665 252.4476 15.08863921 56498,6917.807,95.436,540.616,538.729,0.0
54183.0,STARLINK-5239,PAYLOAD,2023-11-02 14:11:56,15.08845644,0.000175,53.2175,256.2878,92.2589,267.8603,0.00051071,7.851e-05,0.0,0 STARLINK-5239,1 54183U 22141AC  23306.59162052  .00007851  00000-0  51071-3 0  9993,2 54183  53.2175 256.2878 0001750  92.2589 267.8603 15.08845644 56314,6917.863,95.437,540.939,538.518,0.0
54183.0,STARLINK-5239,PAYLOAD,2023-11-02 20:33:28,15.08848147,0.0002073,53.2172,255.1015,80.3199,279.8027,0.00076289,0.00011877,0.0,0 STARLINK-5239,1 54183U 22141AC  23306.85658152  .00011877  00000-0  76289-3 0  9994,2 54183  53.2172 255.1015 0002073  80.3199 279.8027 15.08848147 56589,6917.855,95.437,541.155,538.286,0.0
54183.0,STARLINK-5239,PAYLOAD,2023-11-03 02:55:01,15.08843269,0.00013,53.2164,253.909,99.5907,260.5232,0.00037212,5.64e-05,0.0,0 STARLINK-5239,1 54183U 22141AC  23307.12153959  .00005640  00000-0  37212-3 0  9994,2 54183  53.2164 253.9090 0001300  99.5907 260.5232 15.08843269 56620,6917.87,95.437,540.635,538.836,0.0
54183.0,STARLINK-5239,PAYLOAD,2023-11-03 14:02:43,15.08838028,0.0001523,53.2168,251.8282,87.3841,272.7325,0.0003912,5.943e-05,0.0,0 STARLINK-5239,1 54183U 22141AC  23307.58522361  .00005943  00000-0  39120-3 0  9997,2 54183  53.2168 251.8282 0001523  87.3841 272.7325 15.08838028 56460,6917.886,95.438,540.805,538.698,0.0
54183.0,STARLINK-5239,PAYLOAD,2023-11-03 20:24:15,15.08842123,0.0001516,53.2164,250.6372,96.0804,264.0361,0.00036988,5.604e-05,0.0,0 STARLINK-5239,1 54183U 22141AC  23307.85018317  .00005604  00000-0  36988-3 0  9991,2 54183  53.2164 250.6372 0001516  96.0804 264.0361 15.08842123 56736,6917.874,95.437,540.788,538.69,0.0
54183.0,STARLINK-5239,PAYLOAD,2023-11-04 02:45:48,15.08849159,0.0001508,53.2161,249.4479,96.9769,263.1395,0.00064948,0.00010066,0.0,0 STARLINK-5239,1 54183U 22141AC  23308.11514217  .00010066  00000-0  64948-3 0  9996,2 54183  53.2161 249.4479 0001508  96.9769 263.1395 15.08849159 56549,6917.852,95.437,540.761,538.674,0.0
54183.0,STARLINK-5239,PAYLOAD,2023-11-05 02:36:35,15.08854653,0.0001308,53.2165,244.9873,96.0058,264.1083,0.00047469,7.278e-05,0.0,0 STARLINK-5239,1 54183U 22141AC  23309.10873910  .00007278  00000-0  47469-3 0  9994,2 54183  53.2165 244.9873 0001308  96.0058 264.1083 15.08854653 56923,6917.836,95.437,540.605,538.796,0.0
54183.0,STARLINK-5239,PAYLOAD,2023-11-06 02:27:20,15.08904947,0.0001149,53.2162,240.5277,94.7166,265.3958,0.0017601,0.00027885,0.0,0 STARLINK-5239,1 54183U 22141AC  23310.10232052  .00027885  00000-0  17601-2 0  9992,2 54183  53.2162 240.5277 0001149  94.7166 265.3958 15.08904947 57071,6917.682,95.433,540.342,538.752,0.0
54183.0,STARLINK-5239,PAYLOAD,2023-11-06 11:59:38,15.08887472,0.0001471,53.2174,238.744,84.8714,275.2446,0.0007367,0.00011471,0.0,0 STARLINK-5239,1 54183U 22141AC  23310.49974899  .00011471  00000-0  73670-3 0  9999,2 54183  53.2174 238.7440 0001471  84.8714 275.2446 15.08887472 57134,6917.735,95.435,540.618,538.583,0.0
54183.0,STARLINK-5239,PAYLOAD,2023-11-07 02:18:07,15.08826847,0.0001253,53.2168,236.0631,73.9359,286.1771,-0.00084721,-0.00013741,0.0,0 STARLINK-5239,1 54183U 22141AC  23311.09591925 -.00013741  00000-0 -84721-3 0  9994,2 54183  53.2168 236.0631 0001253  73.9359 286.1771 15.08826847 57223,6917.921,95.438,540.652,538.919,0.0
54183.0,STARLINK-5239,PAYLOAD,2023-11-07 11:50:27,15.08815358,0.0001403,53.2176,234.2827,85.8537,274.2615,-0.00063828,-0.00010425,0.0,0 STARLINK-5239,1 54183U 22141AC  23311.49336812 -.00010425  00000-0 -63828-3 0  9991,2 54183  53.2176 234.2827 0001403  85.8537 274.2615 15.08815358 57057,6917.956,95.439,540.791,538.85,0.0
54183.0,STARLINK-5239,PAYLOAD,2023-11-08 02:08:56,15.088106,0.0001573,53.218,231.6106,103.6941,256.4226,-0.00028788,-4.863e-05,0.0,0 STARLINK-5239,1 54183U 22141AC  23312.08954349 -.00004863  00000-0 -28788-3 0  9993,2 54183  53.2180 231.6106 0001573 103.6941 256.4226 15.08810600 57144,6917.97,95.439,540.923,538.747,0.0
54183.0,STARLINK-5239,PAYLOAD,2023-11-08 22:48:57,15.08837345,0.0001331,53.2165,227.7412,76.3939,283.7201,0.0006554,0.00010157,0.0,0 STARLINK-5239,1 54183U 22141AC  23312.95066858  .00010157  00000-0  65540-3 0  9996,2 54183  53.2165 227.7412 0001331  76.3939 283.7201 15.08837345 57273,6917.889,95.438,540.674,538.833,0.0
54183.0,STARLINK-5239,PAYLOAD,2023-11-09 01:59:43,15.08855859,0.0001389,53.2161,227.1458,84.6024,275.5127,0.0010379,0.00016276,0.0,0 STARLINK-5239,1 54183U 22141AC  23313.08314408  .00016276  00000-0  10379-2 0  9995,2 54183  53.2161 227.1458 0001389  84.6024 275.5127 15.08855859 57527,6917.832,95.437,540.658,538.736,0.0
54183.0,STARLINK-5239,PAYLOAD,2023-11-09 22:39:44,15.08838888,0.0001344,53.2163,223.2809,108.7316,251.3822,0.00025575,3.785e-05,0.0,0 STARLINK-5239,1 54183U 22141AC  23313.94426760  .00003785  00000-0  25575-3 0  9991,2 54183  53.2163 223.2809 0001344 108.7316 251.3822 15.08838888 57425,6917.884,95.438,540.679,538.819,0.0
54183.0,STARLINK-5239,PAYLOAD,2023-11-10 03:25:54,15.08846753,0.0001408,53.2159,222.3884,80.9936,279.1216,0.00030717,4.605e-05,0.0,0 STARLINK-5239,1 54183U 22141AC  23314.14298784  .00004605  00000-0  30717-3 0  9993,2 54183  53.2159 222.3884 0001408  80.9936 279.1216 15.08846753 57686,6917.86,95.437,540.699,538.751,0.0
54183.0,STARLINK-5239,PAYLOAD,2023-11-11 03:16:42,15.08818109,0.0001803,53.2175,217.9229,91.8076,268.3122,-5.5327e-05,-1.168e-05,0.0,0 STARLINK-5239,1 54183U 22141AC  23315.13660563 -.00001168  00000-0 -55327-4 0  9999,2 54183  53.2175 217.9229 0001803  91.8076 268.3122 15.08818109 57839,6917.947,95.439,541.06,538.565,0.0
54183.0,STARLINK-5239,PAYLOAD,2023-11-11 11:13:38,15.08831174,0.0001832,53.2181,216.4407,89.714,270.4062,0.000486,7.453e-05,0.0,0 STARLINK-5239,1 54183U 22141AC  23315.46780847  .00007453  00000-0  48600-3 0  9999,2 54183  53.2181 216.4407 0001832  89.7140 270.4062 15.08831174 57652,6917.907,95.438,541.04,538.505,0.0
54183.0,STARLINK-5239,PAYLOAD,2023-11-11 22:21:20,15.08860143,0.0001499,53.2167,214.3598,82.1855,277.9307,0.0012534,0.00019727,0.0,0 STARLINK-5239,1 54183U 22141AC  23315.93148542  .00019727  00000-0  12534-2 0  9994,2 54183  53.2167 214.3598 0001499  82.1855 277.9307 15.08860143 57723,6917.819,95.436,540.721,538.647,0.0
54183.0,STARLINK-5239,PAYLOAD,2023-11-12 03:07:29,15.08875174,0.0001547,53.2164,213.4685,83.112,277.0048,0.0014103,0.0002225,0.0,0 STARLINK-5239,1 54183U 22141AC  23316.13020079  .00022250  00000-0  14103-2 0  9990,2 54183  53.2164 213.4685 0001547  83.1120 277.0048 15.08875174 57988,6917.773,95.435,540.708,538.568,0.0
54183.0,STARLINK-5239,PAYLOAD,2023-11-12 22:12:06,15.08866469,0.000199,53.217,209.8944,121.0988,239.02,0.00096846,0.0001517,0.0,0 STARLINK-5239,1 54183U 22141AC  23316.92507099  .00015170  00000-0  96846-3 0  9997,2 54183  53.2170 209.8944 0001990 121.0988 239.0200 15.08866469 57871,6917.799,95.436,541.041,538.288,0.0
54183.0,STARLINK-5239,PAYLOAD,2023-11-12 23:47:29,15.08866372,0.0001595,53.2169,209.5967,100.6263,259.4909,0.00057112,8.82e-05,0.0,0 STARLINK-5239,1 54183U 22141AC  23316.99131078  .00008820  00000-0  57112-3 0  9991,2 54183  53.2169 209.5967 0001595 100.6263 259.4909 15.08866372 58114,6917.8,95.436,540.768,538.561,0.0
54183.0,STARLINK-5239,PAYLOAD,2023-11-13 23:38:16,15.08848133,0.0001827,53.2167,205.1394,78.3093,281.8104,0.00039629,6.026e-05,0.0,0 STARLINK-5239,1 54183U 22141AC  23317.98491158  .00006026  00000-0  39629-3 0  9998,2 54183  53.2167 205.1394 0001827  78.3093 281.8104 15.08848133 58265,6917.856,95.437,540.984,538.457,0.0
54183.0,STARLINK-5239,PAYLOAD,2023-11-14 09:10:35,15.08839702,0.0001486,53.2156,203.3564,70.3406,289.7746,7.3292e-05,8.79e-06,0.0,0 STARLINK-5239,1 54183U 22141AC  23318.38235259  .00000879  00000-0  73292-4 0  9996,2 54183  53.2156 203.3564 0001486  70.3406 289.7746 15.08839702 58321,6917.881,95.438,540.774,538.718,0.0
